FID,FID_1,Station_Nu,Station,Town,County,Major_Drai,Site_Type,Sample_Typ,Latitude,Longitude,PctImperv
0,2,S-69,NORTH BRANCH LITTLE RIVER - STATION 69,STANDISH,CUMBERLAND,SACO,STREAM/RIVER BIOMONITORING,MACROINVERTEBRATE,43.739245080000003,-70.524498530000002,0.0550000
1,3,S-70,NORTH BRANCH LITTLE RIVER - STATION 70,STANDISH,CUMBERLAND,SACO,STREAM/RIVER BIOMONITORING,MACROINVERTEBRATE,43.740078939999997,-70.521720889999997,0.0550000
2,110,S-655,MUDDY RIVER - STATION 655,NAPLES,CUMBERLAND,SACO,STREAM/RIVER BIOMONITORING,ALGAE,43.949903319999997,-70.628226789999999,0.0050000
3,111,S-655,MUDDY RIVER - STATION 655,NAPLES,CUMBERLAND,SACO,STREAM/RIVER BIOMONITORING,MACROINVERTEBRATE,43.949903319999997,-70.628226789999999,0.0050000
4,169,W-008,SONGO POND INLET - W-008,BETHEL,OXFORD,SACO,WETLAND,WETLAND,44.376094719999998,-70.812590470000004,0.0080000
5,205,W-134,SONGO POND INLET (UPSTREAM) - W-134,BETHEL,OXFORD,SACO,WETLAND,WETLAND,44.376902729999998,-70.812433420000005,0.0080000
6,210,W-222,SONGO POND INLET - W-222,BETHEL,OXFORD,SACO,WETLAND,WETLAND,44.375391090000001,-70.811555780000006,0.0080000
7,126,S-759,PISCATAQUA RIVER - STATION 759,FALMOUTH,CUMBERLAND,SACO,STREAM/RIVER BIOMONITORING,ALGAE,43.737639170000001,-70.292731689999997,0.1190000
8,127,S-759,PISCATAQUA RIVER - STATION 759,FALMOUTH,CUMBERLAND,SACO,STREAM/RIVER BIOMONITORING,MACROINVERTEBRATE,43.737639170000001,-70.292731689999997,0.1190000
9,130,S-787,PISCATAQUA RIVER - STATION 787,FALMOUTH,CUMBERLAND,SACO,STREAM/RIVER BIOMONITORING,ALGAE,43.736088959999996,-70.293909920000004,0.1190000
10,119,S-722,CROOKED RIVER - STATION 722,ALBANY TWP,OXFORD,SACO,STREAM/RIVER BIOMONITORING,MACROINVERTEBRATE,44.268946939999999,-70.785436079999997,0.0090000
11,178,W-017,MUD POND (ALBANY TWP) - W-017,ALBANY TWP,OXFORD,SACO,WETLAND,WETLAND,44.241320090000002,-70.779375630000004,0.0160000
12,15,S-158,CROOKED RIVER - STATION 158,WATERFORD,OXFORD,SACO,STREAM/RIVER BIOMONITORING,MACROINVERTEBRATE,44.231694500000003,-70.761018519999993,0.0150000
13,115,S-673,CROOKED RIVER - STATION 673,WATERFORD,OXFORD,SACO,STREAM/RIVER BIOMONITORING,ALGAE,44.230805400000001,-70.753711980000006,0.0150000
14,174,W-013,NORTHWEST RIVER - W-013,SEBAGO,CUMBERLAND,SACO,WETLAND,WETLAND,43.900564950000003,-70.679711630000000,0.0070000
15,112,S-656,NORTHWEST RIVER - STATION 656,SEBAGO,CUMBERLAND,SACO,STREAM/RIVER BIOMONITORING,ALGAE,43.862397700000002,-70.642222529999998,0.0300000
16,113,S-656,NORTHWEST RIVER - STATION 656,SEBAGO,CUMBERLAND,SACO,STREAM/RIVER BIOMONITORING,MACROINVERTEBRATE,43.862397700000002,-70.642222529999998,0.0300000
17,120,S-723,CROOKED RIVER - STATION 723,HARRISON,CUMBERLAND,SACO,STREAM/RIVER BIOMONITORING,MACROINVERTEBRATE,44.153144779999998,-70.602869080000005,0.0130000
18,13,S-156,ROYAL RIVER - STATION 156,NEW GLOUCESTER,CUMBERLAND,SACO,STREAM/RIVER BIOMONITORING,MACROINVERTEBRATE,43.993424990000001,-70.268411740000005,0.0240000
19,14,S-157,ROYAL RIVER - STATION 157,NEW GLOUCESTER,CUMBERLAND,SACO,STREAM/RIVER BIOMONITORING,MACROINVERTEBRATE,43.981186979999997,-70.265609370000007,0.0240000
20,27,S-237,CROOKED RIVER - STATION 237,NAPLES,CUMBERLAND,SACO,STREAM/RIVER BIOMONITORING,ALGAE,43.998700999999997,-70.572092999999995,0.0320000
21,28,S-237,CROOKED RIVER - STATION 237,NAPLES,CUMBERLAND,SACO,STREAM/RIVER BIOMONITORING,MACROINVERTEBRATE,43.998700759999998,-70.572092859999998,0.0320000
22,163,W-002,UNNAMED TRIBUTARY TO ROYAL RIVER - W-002,NEW GLOUCESTER,CUMBERLAND,SACO,WETLAND,WETLAND,43.938346889999998,-70.267989850000006,0.0240000
23,22,S-225,ROYAL RIVER - STATION 225,NEW GLOUCESTER,CUMBERLAND,SACO,STREAM/RIVER BIOMONITORING,MACROINVERTEBRATE,43.922612999999998,-70.262411999999998,0.0320000
24,25,S-228,COLLYER BROOK - STATION 228,GRAY,CUMBERLAND,SACO,STREAM/RIVER BIOMONITORING,ALGAE,43.891939839999999,-70.277628829999998,0.0320000
25,26,S-228,COLLYER BROOK - STATION 228,GRAY,CUMBERLAND,SACO,STREAM/RIVER BIOMONITORING,MACROINVERTEBRATE,43.891939839999999,-70.277628829999998,0.0320000
26,128,S-760,ROYAL RIVER - STATION 760,GRAY,CUMBERLAND,SACO,STREAM/RIVER BIOMONITORING,MACROINVERTEBRATE,43.900078100000002,-70.272606260000003,0.0320000
27,129,S-761,ROYAL RIVER - STATION 761,GRAY,CUMBERLAND,SACO,STREAM/RIVER BIOMONITORING,MACROINVERTEBRATE,43.899216600000003,-70.274076870000002,0.0320000
28,23,S-226,ROYAL RIVER - STATION 226,GRAY,CUMBERLAND,SACO,STREAM/RIVER BIOMONITORING,MACROINVERTEBRATE,43.886060880000002,-70.279652279999993,0.0290000
29,135,S-799,ROYAL RIVER - STATION 799,GRAY,CUMBERLAND,SACO,STREAM/RIVER BIOMONITORING,ALGAE,43.890750250000004,-70.277130580000005,0.0290000
30,136,S-799,ROYAL RIVER - STATION 799,GRAY,CUMBERLAND,SACO,STREAM/RIVER BIOMONITORING,MACROINVERTEBRATE,43.890750250000004,-70.277130580000005,0.0290000
31,124,S-757,EAST BRANCH PISCATAQUA RIVER - STATION 757,FALMOUTH,CUMBERLAND,SACO,STREAM/RIVER BIOMONITORING,MACROINVERTEBRATE,43.760777019999999,-70.262119560000002,0.0520000
32,109,S-654,CROOKED RIVER - STATION 654,NAPLES,CUMBERLAND,SACO,STREAM/RIVER BIOMONITORING,MACROINVERTEBRATE,43.961431910000002,-70.567526639999997,0.0470000
33,20,S-223,PRESUMPSCOT RIVER - STATION 223,WINDHAM,CUMBERLAND,SACO,STREAM/RIVER BIOMONITORING,MACROINVERTEBRATE,43.829075910000000,-70.448285850000005,0.0550000
34,80,S-462,PRESUMPSCOT RIVER - STATION 462,STANDISH,CUMBERLAND,SACO,STREAM/RIVER BIOMONITORING,MACROINVERTEBRATE,43.831088100000002,-70.451124419999999,0.0550000
35,191,W-030,GRAY MEADOW (WIGGINS BROOK) - W-030,GRAY,CUMBERLAND,SACO,WETLAND,WETLAND,43.870026250000002,-70.322237259999994,0.0130000
36,62,S-394,PLEASANT RIVER (PRESUMPSCOT) - STATION 394,GRAY,CUMBERLAND,SACO,STREAM/RIVER BIOMONITORING,ALGAE,43.864130770000003,-70.344451690000000,0.0450000
37,63,S-394,PLEASANT RIVER (PRESUMPSCOT) - STATION 394,GRAY,CUMBERLAND,SACO,STREAM/RIVER BIOMONITORING,MACROINVERTEBRATE,43.864130770000003,-70.344451690000000,0.0450000
38,216,W-261,THAYER BROOK - W-261,GRAY,CUMBERLAND,SACO,WETLAND,WETLAND,43.867295939999998,-70.348786709999999,0.0450000
39,31,S-242,ROYAL RIVER - STATION 242,YARMOUTH,CUMBERLAND,SACO,STREAM/RIVER BIOMONITORING,MACROINVERTEBRATE,43.800931640000002,-70.180002049999999,0.1870000
40,94,S-549,PLEASANT RIVER (PRESUMPSCOT) - STATION 549,WINDHAM,CUMBERLAND,SACO,STREAM/RIVER BIOMONITORING,ALGAE,43.838156130000002,-70.384430289999997,0.0540000
41,12,S-155,PLEASANT RIVER (PRESUMPSCOT) - STATION 155,WINDHAM,CUMBERLAND,SACO,STREAM/RIVER BIOMONITORING,MACROINVERTEBRATE,43.786726840000000,-70.420644370000005,0.0650000
42,92,S-544,PLEASANT RIVER (PRESUMPSCOT) - STATION 544,WINDHAM,CUMBERLAND,SACO,STREAM/RIVER BIOMONITORING,ALGAE,43.795274259999999,-70.418643399999993,0.0650000
43,93,S-548,PLEASANT RIVER (PRESUMPSCOT) - STATION 548,WINDHAM,CUMBERLAND,SACO,STREAM/RIVER BIOMONITORING,ALGAE,43.805529129999996,-70.411187190000007,0.0650000
44,21,S-224,PRESUMPSCOT RIVER - STATION 224,WINDHAM,CUMBERLAND,SACO,STREAM/RIVER BIOMONITORING,MACROINVERTEBRATE,43.725609800000001,-70.417877880000006,0.1210000
45,49,S-329,PRESUMPSCOT RIVER - STATION 329,WINDHAM,CUMBERLAND,SACO,STREAM/RIVER BIOMONITORING,MACROINVERTEBRATE,43.733670990000000,-70.423809079999998,0.1210000
46,36,S-296,PRESUMPSCOT RIVER - STATION 296,WESTBROOK,CUMBERLAND,SACO,STREAM/RIVER BIOMONITORING,MACROINVERTEBRATE,43.687807999999997,-70.342983000000004,0.3150000
47,78,S-456,PRESUMPSCOT RIVER - STATION 456,WESTBROOK,CUMBERLAND,SACO,STREAM/RIVER BIOMONITORING,MACROINVERTEBRATE,43.690690549999999,-70.334114040000003,0.3150000
48,175,W-014,UNNAMED TRIBUTARY TO PRESUMPSCOT RIVER - W-014,WESTBROOK,CUMBERLAND,SACO,WETLAND,WETLAND,43.691972100000001,-70.345837029999998,0.3150000
49,209,W-182,HOME DEPOT - W-182,PORTLAND,CUMBERLAND,SACO,WETLAND MITIGATION,WETLAND,43.684640989999998,-70.325383099999996,0.3150000
50,55,S-380,MILL BROOK - STATION 380,WESTBROOK,CUMBERLAND,SACO,STREAM/RIVER BIOMONITORING,MACROINVERTEBRATE,43.741065700000000,-70.353607030000006,0.0620000
51,56,S-381,MILL BROOK - STATION 381,WESTBROOK,CUMBERLAND,SACO,STREAM/RIVER BIOMONITORING,MACROINVERTEBRATE,43.702838260000000,-70.339294030000005,0.1320000
52,125,S-758,PISCATAQUA RIVER - STATION 758,CUMBERLAND,CUMBERLAND,SACO,STREAM/RIVER BIOMONITORING,MACROINVERTEBRATE,43.813227140000002,-70.302089899999999,0.0770000
53,179,W-018,BLACK POND OUTLET - W-018,SWEDEN,OXFORD,SACO,WETLAND,WETLAND,44.142556130000003,-70.797268869999996,0.0080000
54,202,W-130,BLACK POND - W-130,SWEDEN,OXFORD,SACO,WETLAND,WETLAND,44.143596649999999,-70.797508100000002,0.0080000
55,66,S-409,LONG CREEK (BLANCHETTE BROOK) - STATION 409,WESTBROOK,CUMBERLAND,SACO,STREAM/RIVER BIOMONITORING,MACROINVERTEBRATE,43.648167819999998,-70.350249160000004,0.2260000
56,100,S-571,LONG CREEK (BLANCHETTE BROOK) - STATION 571,WESTBROOK,CUMBERLAND,SACO,STREAM/RIVER BIOMONITORING,ALGAE,43.647993100000001,-70.356921090000000,0.2260000
57,206,W-171,UNNAMED TRIBUTARY TO LONG CREEK (BLANCHETTE BROOK) - W-171,WESTBROOK,CUMBERLAND,SACO,WETLAND MITIGATION,WETLAND,43.646622010000002,-70.364046569999999,0.2260000
58,68,S-411,LONG CREEK - STATION 411,WESTBROOK,CUMBERLAND,SACO,STREAM/RIVER BIOMONITORING,MACROINVERTEBRATE,43.647374800000001,-70.351564339999996,0.1140000
59,147,S-1015,LONG CREEK - STATION 1015,SOUTH PORTLAND,CUMBERLAND,SACO,STREAM/RIVER BIOMONITORING,MACROINVERTEBRATE,43.643639999999998,-70.353189999999998,0.1140000
60,188,W-027,HEAD OF LONG CREEK - W-027,SOUTH PORTLAND,CUMBERLAND,SACO,WETLAND,WETLAND,43.636050689999998,-70.348916349999996,0.1140000
61,189,W-028,LONG CREEK (BELOW GANNETT DR) - W-028,SOUTH PORTLAND,CUMBERLAND,SACO,WETLAND,WETLAND,43.641652180000001,-70.355225079999997,0.1140000
62,67,S-410,LONG CREEK - STATION 410,SOUTH PORTLAND,CUMBERLAND,SACO,STREAM/RIVER BIOMONITORING,MACROINVERTEBRATE,43.639837909999997,-70.332005899999999,0.3260000
63,73,S-415,LONG CREEK - STATION 415,SOUTH PORTLAND,CUMBERLAND,SACO,STREAM/RIVER BIOMONITORING,MACROINVERTEBRATE,43.634958359999999,-70.326852119999998,0.3260000
64,98,S-570,LONG CREEK - STATION 570,SOUTH PORTLAND,CUMBERLAND,SACO,STREAM/RIVER BIOMONITORING,ALGAE,43.643943620000002,-70.335480169999997,0.3260000
65,99,S-570,LONG CREEK - STATION 570,SOUTH PORTLAND,CUMBERLAND,SACO,STREAM/RIVER BIOMONITORING,MACROINVERTEBRATE,43.643943620000002,-70.335480169999997,0.3260000
66,102,S-580,LONG CREEK - STATION 580,SOUTH PORTLAND,CUMBERLAND,SACO,STREAM/RIVER BIOMONITORING,ALGAE,43.636106210000001,-70.328381429999993,0.3260000
67,122,S-752,LONG CREEK - STATION 752,SOUTH PORTLAND,CUMBERLAND,SACO,STREAM/RIVER BIOMONITORING,MACROINVERTEBRATE,43.636639330000001,-70.329030709999998,0.3260000
68,72,S-414,LONG CREEK - STATION 414,SOUTH PORTLAND,CUMBERLAND,SACO,STREAM/RIVER BIOMONITORING,MACROINVERTEBRATE,43.635416550000002,-70.326260210000001,0.4260000
69,101,S-579,LONG CREEK - STATION 579,SOUTH PORTLAND,CUMBERLAND,SACO,STREAM/RIVER BIOMONITORING,ALGAE,43.638525379999997,-70.328033759999997,0.4260000
70,132,S-793,LONG CREEK - STATION 793,SOUTH PORTLAND,CUMBERLAND,SACO,STREAM/RIVER BIOMONITORING,ALGAE,43.641458790000001,-70.329319979999994,0.4260000
71,65,S-408,SOUTH BRANCH LONG CREEK - STATION 408,SOUTH PORTLAND,CUMBERLAND,SACO,STREAM/RIVER BIOMONITORING,MACROINVERTEBRATE,43.632774540000000,-70.327454720000006,0.5760000
72,103,S-581,SOUTH BRANCH LONG CREEK - STATION 581,SOUTH PORTLAND,CUMBERLAND,SACO,STREAM/RIVER BIOMONITORING,ALGAE,43.632780089999997,-70.325602230000001,0.5760000
73,104,S-581,SOUTH BRANCH LONG CREEK - STATION 581,SOUTH PORTLAND,CUMBERLAND,SACO,STREAM/RIVER BIOMONITORING,MACROINVERTEBRATE,43.632780089999997,-70.325602230000001,0.5760000
74,123,S-753,SOUTH BRANCH LONG CREEK - STATION 753,SOUTH PORTLAND,CUMBERLAND,SACO,STREAM/RIVER BIOMONITORING,MACROINVERTEBRATE,43.633654700000001,-70.321401030000004,0.5760000
75,16,S-218,RED BROOK - STATION 218,SCARBOROUGH,CUMBERLAND,SACO,STREAM/RIVER BIOMONITORING,MACROINVERTEBRATE,43.636690320000000,-70.377608980000005,0.1360000
76,17,S-219,RED BROOK - STATION 219,SCARBOROUGH,CUMBERLAND,SACO,STREAM/RIVER BIOMONITORING,MACROINVERTEBRATE,43.633469970000000,-70.376587479999998,0.1360000
77,69,S-412,RED BROOK - STATION 412,SOUTH PORTLAND,CUMBERLAND,SACO,STREAM/RIVER BIOMONITORING,MACROINVERTEBRATE,43.627943440000003,-70.325611670000001,0.1360000
78,70,S-413,RED BROOK - STATION 413,SCARBOROUGH,CUMBERLAND,SACO,STREAM/RIVER BIOMONITORING,ALGAE,43.626425720000000,-70.346028959999998,0.1360000
79,71,S-413,RED BROOK - STATION 413,SCARBOROUGH,CUMBERLAND,SACO,STREAM/RIVER BIOMONITORING,MACROINVERTEBRATE,43.626425720000000,-70.346028959999998,0.1360000
80,95,S-560,RED BROOK - STATION 560,SCARBOROUGH,CUMBERLAND,SACO,STREAM/RIVER BIOMONITORING,ALGAE,43.626075270000001,-70.368400170000001,0.1360000
81,61,S-387,BARBERRY CREEK - STATION 387,SOUTH PORTLAND,CUMBERLAND,SACO,STREAM/RIVER BIOMONITORING,MACROINVERTEBRATE,43.626482639999999,-70.278076420000005,0.2960000
82,114,S-672,BARBERRY CREEK - STATION 672,SOUTH PORTLAND,CUMBERLAND,SACO,STREAM/RIVER BIOMONITORING,ALGAE,43.622723760000000,-70.282746250000002,0.2960000
83,180,W-019,DUCK POND BROOK - W-019,SWEDEN,OXFORD,SACO,WETLAND,WETLAND,44.131513120000001,-70.782359860000000,0.0150000
84,181,W-020,UNNAMED TRIBUTARY TO POWERS BROOK - W-020,SWEDEN,OXFORD,SACO,WETLAND,WETLAND,44.123607909999997,-70.766380150000003,0.0130000
85,48,S-328,PRESUMPSCOT RIVER - STATION 328,WINDHAM,CUMBERLAND,SACO,STREAM/RIVER BIOMONITORING,MACROINVERTEBRATE,43.739938279999997,-70.430527769999998,0.0940000
86,37,S-301,KIMBALL BROOK - STATION 301,SOUTH PORTLAND,CUMBERLAND,SACO,STREAM/RIVER BIOMONITORING,MACROINVERTEBRATE,43.623752979999999,-70.259718809999995,0.0700000
87,38,S-302,TROUT BROOK - STATION 302,SOUTH PORTLAND,CUMBERLAND,SACO,STREAM/RIVER BIOMONITORING,ALGAE,43.633532430000002,-70.249842790000002,0.1730000
88,39,S-302,TROUT BROOK - STATION 302,SOUTH PORTLAND,CUMBERLAND,SACO,STREAM/RIVER BIOMONITORING,MACROINVERTEBRATE,43.633532430000002,-70.249842790000002,0.1730000
89,77,S-454,TROUT BROOK - STATION 454,SOUTH PORTLAND,CUMBERLAND,SACO,STREAM/RIVER BIOMONITORING,MACROINVERTEBRATE,43.629584520000002,-70.249207190000007,0.1730000
90,116,S-675,TROUT BROOK - STATION 675,SOUTH PORTLAND,CUMBERLAND,SACO,STREAM/RIVER BIOMONITORING,ALGAE,43.629463999999999,-70.245879000000002,0.1730000
91,117,S-675,TROUT BROOK - STATION 675,SOUTH PORTLAND,CUMBERLAND,SACO,STREAM/RIVER BIOMONITORING,MACROINVERTEBRATE,43.629463999999999,-70.245879000000002,0.1730000
92,149,S-1040,TROUT BROOK - STATION 1040,CAPE ELIZABETH,CUMBERLAND,SACO,STREAM/RIVER BIOMONITORING,MACROINVERTEBRATE,43.619782000000001,-70.249168999999995,0.1730000
93,199,W-093,TROUT BROOK - W-093,CAPE ELIZABETH,CUMBERLAND,SACO,WETLAND,WETLAND,43.626598340000001,-70.242186480000001,0.1730000
94,182,W-021,OTTER POND - W-021,BRIDGTON,CUMBERLAND,SACO,WETLAND,WETLAND,44.027358780000000,-70.677294209999999,0.0240000
95,118,S-692,UNNAMED STREAM (CAPE ELIZABETH) - STATION 692,CAPE ELIZABETH,CUMBERLAND,SACO,STREAM/RIVER BIOMONITORING,MACROINVERTEBRATE,43.619222940000000,-70.217018690000003,0.1000000
96,171,W-010,NASON'S BROOK - W-010,WESTBROOK,CUMBERLAND,SACO,WETLAND,WETLAND,43.671298489999998,-70.336286380000004,0.3480000
97,207,W-172,NASON'S BROOK (SAUNDER'S WAY) - W-172,WESTBROOK,CUMBERLAND,SACO,WETLAND,WETLAND,43.674244020000003,-70.340024950000000,0.3480000
98,208,W-173,UNNAMED TRIBUTARY TO NASON'S BROOK - W-173,WESTBROOK,CUMBERLAND,SACO,WETLAND MITIGATION,WETLAND,43.666017119999999,-70.335600569999997,0.0940000
99,105,S-638,NASON'S BROOK - STATION 638,PORTLAND,CUMBERLAND,SACO,STREAM/RIVER BIOMONITORING,ALGAE,43.670712039999998,-70.319216069999996,0.3210000
100,106,S-638,NASON'S BROOK - STATION 638,PORTLAND,CUMBERLAND,SACO,STREAM/RIVER BIOMONITORING,MACROINVERTEBRATE,43.670712039999998,-70.319216069999996,0.3210000
101,200,W-127,NASON'S BROOK (OFF RAND ROAD) - W-127,PORTLAND,CUMBERLAND,SACO,WETLAND,WETLAND,43.669172629999998,-70.325999809999999,0.3210000
102,184,W-023,CAPISIC POND (INLET) - W-023,PORTLAND,CUMBERLAND,SACO,WETLAND,WETLAND,43.667759429999997,-70.307094309999997,0.3450000
103,32,S-256,CAPISIC BROOK - STATION 256,PORTLAND,CUMBERLAND,SACO,STREAM/RIVER BIOMONITORING,MACROINVERTEBRATE,43.684973530000001,-70.302966269999999,0.3070000
104,33,S-257,CAPISIC BROOK - STATION 257,PORTLAND,CUMBERLAND,SACO,STREAM/RIVER BIOMONITORING,ALGAE,43.670352729999998,-70.308444809999997,0.3070000
105,34,S-257,CAPISIC BROOK - STATION 257,PORTLAND,CUMBERLAND,SACO,STREAM/RIVER BIOMONITORING,MACROINVERTEBRATE,43.670352729999998,-70.308444809999997,0.3070000
106,140,S-931,CAPISIC BROOK - STATION 931,PORTLAND,CUMBERLAND,SACO,STREAM/RIVER BIOMONITORING,MACROINVERTEBRATE,43.686000030000002,-70.310319980000003,0.3070000
107,141,S-932,CAPISIC BROOK - STATION 932,PORTLAND,CUMBERLAND,SACO,STREAM/RIVER BIOMONITORING,MACROINVERTEBRATE,43.685969860000000,-70.312700010000000,0.3070000
108,142,S-933,CAPISIC BROOK - UNNAMED TRIBUTARY - STATION 933,PORTLAND,CUMBERLAND,SACO,STREAM/RIVER BIOMONITORING,MACROINVERTEBRATE,43.679719990000002,-70.317240020000000,0.3070000
109,143,S-934,CAPISIC BROOK - STATION 934,PORTLAND,CUMBERLAND,SACO,STREAM/RIVER BIOMONITORING,MACROINVERTEBRATE,43.677960040000002,-70.315210030000003,0.3070000
110,148,S-1039,CAPISIC BROOK - STATION 1039,PORTLAND,CUMBERLAND,SACO,STREAM/RIVER BIOMONITORING,MACROINVERTEBRATE,43.684300999999998,-70.313998999999995,0.3070000
111,134,S-796,STROUDWATER RIVER - STATION 796,GORHAM,CUMBERLAND,SACO,STREAM/RIVER BIOMONITORING,MACROINVERTEBRATE,43.638548780000001,-70.446485280000005,0.0220000
112,59,S-385,DOLE BROOK - STATION 385,PORTLAND,CUMBERLAND,SACO,STREAM/RIVER BIOMONITORING,MACROINVERTEBRATE,43.704085370000001,-70.300678800000000,0.2750000
113,60,S-386,DOLE BROOK - STATION 386,PORTLAND,CUMBERLAND,SACO,STREAM/RIVER BIOMONITORING,MACROINVERTEBRATE,43.705048079999997,-70.306311070000007,0.2750000
114,121,S-751,DOLE BROOK - STATION 751,PORTLAND,CUMBERLAND,SACO,STREAM/RIVER BIOMONITORING,MACROINVERTEBRATE,43.717053819999997,-70.309108539999997,0.2750000
115,186,W-025,DOLE BROOK - W-025,PORTLAND,CUMBERLAND,SACO,WETLAND,WETLAND,43.718573659999997,-70.312369000000004,0.2750000
116,187,W-026,DOLE BROOK - W-026,PORTLAND,CUMBERLAND,SACO,WETLAND,WETLAND,43.708219839999998,-70.308204230000001,0.2750000
117,5,S-72,PRESUMPSCOT RIVER - STATION 72,WESTBROOK,CUMBERLAND,SACO,STREAM/RIVER BIOMONITORING,MACROINVERTEBRATE,43.702384870000003,-70.325701800000004,0.3210000
118,185,W-024,UNNAMED TRIBUTARY TO PRESUMPSCOT RIVER - W-024,PORTLAND,CUMBERLAND,SACO,WETLAND,WETLAND,43.698484729999997,-70.322720090000004,0.3210000
119,0,S-66,STROUDWATER RIVER - STATION 66,GORHAM,CUMBERLAND,SACO,STREAM/RIVER BIOMONITORING,MACROINVERTEBRATE,43.644781760000001,-70.409495800000002,0.0390000
120,1,S-67,STROUDWATER RIVER - STATION 67,GORHAM,CUMBERLAND,SACO,STREAM/RIVER BIOMONITORING,MACROINVERTEBRATE,43.643035470000001,-70.411921989999996,0.0390000
121,30,S-240,STROUDWATER RIVER - STATION 240,GORHAM,CUMBERLAND,SACO,STREAM/RIVER BIOMONITORING,MACROINVERTEBRATE,43.645586629999997,-70.408843959999999,0.0390000
122,131,S-789,STROUDWATER RIVER - STATION 789,GORHAM,CUMBERLAND,SACO,STREAM/RIVER BIOMONITORING,ALGAE,43.655266300000001,-70.401100369999995,0.0390000
123,74,S-448,MILE BROOK - STATION 448,CASCO,CUMBERLAND,SACO,STREAM/RIVER BIOMONITORING,ALGAE,44.012334000000003,-70.529006999999993,0.0260000
124,75,S-448,MILE BROOK - STATION 448,CASCO,CUMBERLAND,SACO,STREAM/RIVER BIOMONITORING,MACROINVERTEBRATE,44.012334000000003,-70.529006999999993,0.0260000
125,76,S-449,MILE BROOK - STATION 449,CASCO,CUMBERLAND,SACO,STREAM/RIVER BIOMONITORING,MACROINVERTEBRATE,44.008891239999997,-70.524746010000001,0.0260000
126,145,S-998,MILE BROOK - STATION 998,CASCO,CUMBERLAND,SACO,STREAM/RIVER BIOMONITORING,ALGAE,44.010497999999998,-70.534445000000005,0.0260000
127,146,S-998,MILE BROOK - STATION 998,CASCO,CUMBERLAND,SACO,STREAM/RIVER BIOMONITORING,MACROINVERTEBRATE,44.010497999999998,-70.534445000000005,0.0260000
128,144,S-948,MILE BROOK - STATION 948,NAPLES,CUMBERLAND,SACO,STREAM/RIVER BIOMONITORING,ALGAE,43.986593999999997,-70.560874999999996,0.0410000
129,85,S-474,TANNERY BROOK - STATION 474,GORHAM,CUMBERLAND,SACO,STREAM/RIVER BIOMONITORING,ALGAE,43.701356930000003,-70.436280900000000,0.0430000
130,86,S-474,TANNERY BROOK - STATION 474,GORHAM,CUMBERLAND,SACO,STREAM/RIVER BIOMONITORING,MACROINVERTEBRATE,43.701356930000003,-70.436280900000000,0.0430000
131,164,W-003,EAST BRANCH CHANDLER RIVER - W-003,DURHAM,ANDROSCOGGIN,SACO,WETLAND,WETLAND,43.949428370000000,-70.130522060000004,0.0180000
132,57,S-382,DOUGLAS BROOK - STATION 382,GORHAM,CUMBERLAND,SACO,STREAM/RIVER BIOMONITORING,MACROINVERTEBRATE,43.707333210000002,-70.519133089999997,0.0420000
133,58,S-383,DOUGLAS BROOK - STATION 383,GORHAM,CUMBERLAND,SACO,STREAM/RIVER BIOMONITORING,MACROINVERTEBRATE,43.727144660000000,-70.471037740000000,0.0420000
134,159,S-1075,NORTH BRANCH LITTLE RIVER - UNNAMED TRIBUTARY - STATION 1075,STANDISH,CUMBERLAND,SACO,STREAM/RIVER BIOMONITORING,MACROINVERTEBRATE,43.734043999999997,-70.533506000000003,0.0370000
135,151,S-1067,NORTH BRANCH LITTLE RIVER - UNNAMED TRIBUTARY - STATION 1067,STANDISH,CUMBERLAND,SACO,STREAM/RIVER BIOMONITORING,MACROINVERTEBRATE,43.748427999999997,-70.537809999999993,0.0940000
136,152,S-1068,NORTH BRANCH LITTLE RIVER - UNNAMED TRIBUTARY - STATION 1068,STANDISH,CUMBERLAND,SACO,STREAM/RIVER BIOMONITORING,MACROINVERTEBRATE,43.747782999999998,-70.537558000000004,0.0940000
137,153,S-1069,NORTH BRANCH LITTLE RIVER - UNNAMED TRIBUTARY - STATION 1069,STANDISH,CUMBERLAND,SACO,STREAM/RIVER BIOMONITORING,MACROINVERTEBRATE,43.747211000000000,-70.537270000000007,0.0940000
138,154,S-1070,NORTH BRANCH LITTLE RIVER - UNNAMED TRIBUTARY - STATION 1070,STANDISH,CUMBERLAND,SACO,STREAM/RIVER BIOMONITORING,MACROINVERTEBRATE,43.746988000000002,-70.537103000000002,0.0940000
139,155,S-1071,NORTH BRANCH LITTLE RIVER - UNNAMED TRIBUTARY - STATION 1071,STANDISH,CUMBERLAND,SACO,STREAM/RIVER BIOMONITORING,MACROINVERTEBRATE,43.746558000000000,-70.536893000000006,0.0940000
140,156,S-1072,NORTH BRANCH LITTLE RIVER - UNNAMED TRIBUTARY - STATION 1072,STANDISH,CUMBERLAND,SACO,STREAM/RIVER BIOMONITORING,MACROINVERTEBRATE,43.745041999999998,-70.535190000000000,0.0940000
141,157,S-1073,NORTH BRANCH LITTLE RIVER - UNNAMED TRIBUTARY - STATION 1073,STANDISH,CUMBERLAND,SACO,STREAM/RIVER BIOMONITORING,MACROINVERTEBRATE,43.744957999999997,-70.535386000000003,0.0940000
142,158,S-1074,NORTH BRANCH LITTLE RIVER - UNNAMED TRIBUTARY - STATION 1074,STANDISH,CUMBERLAND,SACO,STREAM/RIVER BIOMONITORING,MACROINVERTEBRATE,43.744706000000001,-70.534039000000007,0.0940000
143,160,S-1076,NORTH BRANCH LITTLE RIVER - UNNAMED TRIBUTARY - STATION 1076,STANDISH,CUMBERLAND,SACO,STREAM/RIVER BIOMONITORING,MACROINVERTEBRATE,43.749569000000001,-70.535306000000006,0.0940000
144,165,W-004,GRAY MEADOW (PLEASANT RIVER) - W-004,GRAY,CUMBERLAND,SACO,WETLAND,WETLAND,43.872360800000003,-70.325482899999997,0.0640000
145,166,W-005,GRAY MEADOW (WIGGINS BROOK) - W-005,GRAY,CUMBERLAND,SACO,WETLAND,WETLAND,43.870292630000002,-70.325080369999995,0.0640000
146,214,W-259,GRAY MEADOW (PLEASANT RIVER) - W-259,GRAY,CUMBERLAND,SACO,WETLAND,WETLAND,43.873799110000000,-70.322821270000006,0.0640000
147,215,W-260,GRAY MEADOW (WIGGINS BROOK TRIBUTARY) - W-260,GRAY,CUMBERLAND,SACO,WETLAND,WETLAND,43.866853870000000,-70.321636450000000,0.0840000
148,170,W-009,WALKER BROOK - W-009,ALBANY TWP,OXFORD,SACO,WETLAND,WETLAND,44.355992800000003,-70.815854250000001,0.0030000
149,211,W-223,WALKER BROOK - W-223,ALBANY TWP,OXFORD,SACO,WETLAND,WETLAND,44.354414360000000,-70.814179600000003,0.0030000
150,176,W-015,WATERFOWL MARSH - W-015,ALBANY TWP,OXFORD,SACO,WETLAND,WETLAND,44.317795779999997,-70.822472579999996,0.0000000
151,64,S-395,BAKER BROOK - STATION 395,WINDHAM,CUMBERLAND,SACO,STREAM/RIVER BIOMONITORING,MACROINVERTEBRATE,43.815032930000001,-70.381067340000001,0.0170000
152,183,W-022,UNNAMED TRIBUTARY TO HOLT POND - W-022,BRIDGTON,CUMBERLAND,SACO,WETLAND,WETLAND,43.978989710000000,-70.686990719999997,0.0220000
153,194,W-033,SUCKER BROOK (MORGAN MEADOW WMA) - W-033,RAYMOND,CUMBERLAND,SACO,WETLAND,WETLAND,43.938747999999997,-70.399593080000002,0.0070000
154,195,W-034,SUCKER BROOK (MORGAN MEADOW WMA) - W-034,RAYMOND,CUMBERLAND,SACO,WETLAND,WETLAND,43.932153390000003,-70.398440600000001,0.0070000
155,213,W-225,SUCKER BROOK (MORGAN MEADOW WMA) - W-225,RAYMOND,CUMBERLAND,SACO,WETLAND,WETLAND,43.936504610000000,-70.399076949999994,0.0070000
156,203,W-131,NORTHWEST RIVER - W-131,SEBAGO,CUMBERLAND,SACO,WETLAND,WETLAND,43.883680869999999,-70.659053889999996,0.0040000
157,81,S-470,TANNERY BROOK - STATION 470,GORHAM,CUMBERLAND,SACO,STREAM/RIVER BIOMONITORING,MACROINVERTEBRATE,43.686453389999997,-70.441635890000001,0.1430000
158,82,S-471,TANNERY BROOK - STATION 471,GORHAM,CUMBERLAND,SACO,STREAM/RIVER BIOMONITORING,MACROINVERTEBRATE,43.687505020000003,-70.439517019999997,0.1430000
159,96,S-562,TANNERY BROOK - STATION 562,GORHAM,CUMBERLAND,SACO,STREAM/RIVER BIOMONITORING,ALGAE,43.686677549999999,-70.446167299999999,0.1430000
160,97,S-562,TANNERY BROOK - STATION 562,GORHAM,CUMBERLAND,SACO,STREAM/RIVER BIOMONITORING,MACROINVERTEBRATE,43.686677549999999,-70.446167299999999,0.1430000
161,198,W-037,DECKER BROOK - W-037,CASCO,CUMBERLAND,SACO,WETLAND,WETLAND,43.981134009999998,-70.543964779999996,0.0800000
162,218,W-323,BASIN POND PRESERVE - W-323,PHIPPSBURG,SAGADAHOC,SACO,WETLAND,WETLAND,43.813189999999999,-69.827877999999998,0.0340000
163,162,W-001,MEADOW BROOK (NEW GLOUCESTER) - W-001,NEW GLOUCESTER,CUMBERLAND,SACO,WETLAND,WETLAND,43.970913539999998,-70.244372139999996,0.0260000
164,217,W-262,MEADOW BROOK (NEW GLOUCESTER) - W-262,NEW GLOUCESTER,CUMBERLAND,SACO,WETLAND,WETLAND,43.971782589999997,-70.246168240000003,0.0260000
165,133,S-795,KIMBALL BROOK - STATION 795,SOUTH PORTLAND,CUMBERLAND,SACO,STREAM/RIVER BIOMONITORING,MACROINVERTEBRATE,43.630604110000000,-70.251714379999996,0.4300000
166,53,S-348,MERRILL BROOK - STATION 348,FREEPORT,CUMBERLAND,SACO,STREAM/RIVER BIOMONITORING,MACROINVERTEBRATE,43.851069809999998,-70.133806109999995,0.1190000
167,52,S-332,MARE BROOK - UNNAMED TRIBUTARY - STATION 332,BRUNSWICK,CUMBERLAND,SACO,STREAM/RIVER BIOMONITORING,MACROINVERTEBRATE,43.872274930000003,-69.937526199999994,0.0430000
168,8,S-143,MARE BROOK - STATION 143,BRUNSWICK,CUMBERLAND,SACO,STREAM/RIVER BIOMONITORING,ALGAE,43.895241200000001,-69.952132689999999,0.1780000
169,9,S-143,MARE BROOK - STATION 143,BRUNSWICK,CUMBERLAND,SACO,STREAM/RIVER BIOMONITORING,MACROINVERTEBRATE,43.895241200000001,-69.952132689999999,0.1780000
170,10,S-144,MARE BROOK - STATION 144,BRUNSWICK,CUMBERLAND,SACO,STREAM/RIVER BIOMONITORING,ALGAE,43.879597859999997,-69.923851299999995,0.1780000
171,11,S-144,MARE BROOK - STATION 144,BRUNSWICK,CUMBERLAND,SACO,STREAM/RIVER BIOMONITORING,MACROINVERTEBRATE,43.879597859999997,-69.923851299999995,0.1780000
172,50,S-330,MARE BROOK - UNNAMED TRIBUTARY - STATION 330,BRUNSWICK,CUMBERLAND,SACO,STREAM/RIVER BIOMONITORING,MACROINVERTEBRATE,43.885027569999998,-69.921005519999994,0.1780000
173,51,S-331,MARE BROOK - STATION 331,BRUNSWICK,CUMBERLAND,SACO,STREAM/RIVER BIOMONITORING,MACROINVERTEBRATE,43.882934870000000,-69.932518860000002,0.1780000
174,79,S-457,MARE BROOK - STATION 457,BRUNSWICK,CUMBERLAND,SACO,STREAM/RIVER BIOMONITORING,MACROINVERTEBRATE,43.881958339999997,-69.923665799999995,0.1780000
175,150,S-1064,MARE BROOK - STATION 1064,BRUNSWICK,CUMBERLAND,SACO,STREAM/RIVER BIOMONITORING,MACROINVERTEBRATE,43.900379999999998,-69.971860000000007,0.1780000
176,18,S-220,HATCHERY BROOK - STATION 220,GRAY,CUMBERLAND,SACO,STREAM/RIVER BIOMONITORING,MACROINVERTEBRATE,43.920797710000002,-70.346160979999993,0.0730000
177,43,S-316,COLE BROOK - STATION 316,GRAY,CUMBERLAND,SACO,STREAM/RIVER BIOMONITORING,MACROINVERTEBRATE,43.936574000000000,-70.339601349999995,0.0700000
178,44,S-317,COLE BROOK - STATION 317,GRAY,CUMBERLAND,SACO,STREAM/RIVER BIOMONITORING,MACROINVERTEBRATE,43.923885259999999,-70.339484100000007,0.0700000
179,107,S-639,NORTON BROOK - STATION 639,FALMOUTH,CUMBERLAND,SACO,STREAM/RIVER BIOMONITORING,MACROINVERTEBRATE,43.739852440000000,-70.219845570000004,0.1160000
180,161,S-1126,NORTON BROOK - STATION 1126,FALMOUTH,CUMBERLAND,SACO,STREAM/RIVER BIOMONITORING,MACROINVERTEBRATE,43.735266000000003,-70.223158999999995,0.1160000
181,19,S-221,LIBBY BROOK - STATION 221,GRAY,CUMBERLAND,SACO,STREAM/RIVER BIOMONITORING,MACROINVERTEBRATE,43.919972289999997,-70.327830149999997,0.0490000
182,54,S-379,LIBBY BROOK - STATION 379,GRAY,CUMBERLAND,SACO,STREAM/RIVER BIOMONITORING,MACROINVERTEBRATE,43.911464930000001,-70.332632079999996,0.0490000
183,137,S-801,LIBBY BROOK - STATION 801,GRAY,CUMBERLAND,SACO,STREAM/RIVER BIOMONITORING,ALGAE,43.921435870000003,-70.319394590000002,0.0490000
184,6,S-141,EDDY BROOK - STATION 141,NEW GLOUCESTER,CUMBERLAND,SACO,STREAM/RIVER BIOMONITORING,MACROINVERTEBRATE,43.942837210000000,-70.328180390000000,0.0460000
185,7,S-142,EDDY BROOK - STATION 142,NEW GLOUCESTER,CUMBERLAND,SACO,STREAM/RIVER BIOMONITORING,MACROINVERTEBRATE,43.934897610000000,-70.323678029999996,0.0460000
186,41,S-304,FROST GULLY BROOK - STATION 304,FREEPORT,CUMBERLAND,SACO,STREAM/RIVER BIOMONITORING,ALGAE,43.861513090000003,-70.092406990000001,0.0810000
187,42,S-304,FROST GULLY BROOK - STATION 304,FREEPORT,CUMBERLAND,SACO,STREAM/RIVER BIOMONITORING,MACROINVERTEBRATE,43.861513090000003,-70.092406990000001,0.0810000
188,40,S-303,FROST GULLY BROOK - STATION 303,FREEPORT,CUMBERLAND,SACO,STREAM/RIVER BIOMONITORING,MACROINVERTEBRATE,43.861094379999997,-70.094289700000004,0.1150000
189,87,S-477,FROST GULLY BROOK - STATION 477,FREEPORT,CUMBERLAND,SACO,STREAM/RIVER BIOMONITORING,MACROINVERTEBRATE,43.860181930000003,-70.093152489999994,0.1150000
190,24,S-227,COLLYER BROOK - STATION 227,GRAY,CUMBERLAND,SACO,STREAM/RIVER BIOMONITORING,MACROINVERTEBRATE,43.896779490000000,-70.294119240000001,0.0210000
191,88,S-496,CONCORD GULLY - STATION 496,FREEPORT,CUMBERLAND,SACO,STREAM/RIVER BIOMONITORING,MACROINVERTEBRATE,43.845300690000002,-70.108418020000002,0.1790000
192,89,S-497,CONCORD GULLY - STATION 497,FREEPORT,CUMBERLAND,SACO,STREAM/RIVER BIOMONITORING,MACROINVERTEBRATE,43.846275149999997,-70.106268700000001,0.1790000
193,90,S-498,CONCORD GULLY - STATION 498,FREEPORT,CUMBERLAND,SACO,STREAM/RIVER BIOMONITORING,ALGAE,43.846025570000002,-70.104429229999994,0.1790000
194,91,S-498,CONCORD GULLY - STATION 498,FREEPORT,CUMBERLAND,SACO,STREAM/RIVER BIOMONITORING,MACROINVERTEBRATE,43.846025570000002,-70.104429229999994,0.1790000
195,139,S-816,MOOSE BROOK - STATION 816,AUBURN,ANDROSCOGGIN,SACO,STREAM/RIVER BIOMONITORING,MACROINVERTEBRATE,44.022627290000003,-70.274036080000002,0.0930000
196,173,W-012,MARINER POND OUTLET - W-012,SEBAGO,CUMBERLAND,SACO,WETLAND,WETLAND,43.893950850000003,-70.695169350000000,0.0330000
197,190,W-029,MEADOW BROOK (NEW GLOUCESTER) - W-029,NEW GLOUCESTER,CUMBERLAND,SACO,WETLAND,WETLAND,43.958892790000000,-70.261653330000001,0.0190000
198,204,W-133,ALLEN BOG SITE B - W-133,GRAY,CUMBERLAND,SACO,WETLAND,WETLAND,43.866467960000001,-70.376771849999997,0.0130000
199,192,W-031,UNNAMED TRIBUTARY TO RUNAROUND POND - W-031,DURHAM,ANDROSCOGGIN,SACO,WETLAND,WETLAND,43.956476950000003,-70.165917059999998,0.0060000
200,108,S-640,UNNAMED STREAM (PORTLAND 6) - STATION 640,FALMOUTH,CUMBERLAND,SACO,STREAM/RIVER BIOMONITORING,MACROINVERTEBRATE,43.703890809999997,-70.262914899999998,0.1310000
201,4,S-71,PRESUMPSCOT RIVER - STATION 71,WESTBROOK,CUMBERLAND,SACO,STREAM/RIVER BIOMONITORING,MACROINVERTEBRATE,43.680889909999998,-70.371675069999995,0.0000000
202,29,S-238,PRESUMPSCOT RIVER - STATION 238,WESTBROOK,CUMBERLAND,SACO,STREAM/RIVER BIOMONITORING,MACROINVERTEBRATE,43.682198520000000,-70.354644350000001,0.0000000
203,35,S-295,PRESUMPSCOT RIVER - STATION 295,WESTBROOK,CUMBERLAND,SACO,STREAM/RIVER BIOMONITORING,MACROINVERTEBRATE,43.677916549999999,-70.365339849999998,0.0000000
204,45,S-325,PRESUMPSCOT RIVER - STATION 325,WINDHAM,CUMBERLAND,SACO,STREAM/RIVER BIOMONITORING,MACROINVERTEBRATE,43.777185150000001,-70.451834529999999,0.0000000
205,46,S-326,PRESUMPSCOT RIVER - STATION 326,WINDHAM,CUMBERLAND,SACO,STREAM/RIVER BIOMONITORING,MACROINVERTEBRATE,43.769707130000000,-70.445813479999998,0.0000000
206,47,S-327,PRESUMPSCOT RIVER - STATION 327,WINDHAM,CUMBERLAND,SACO,STREAM/RIVER BIOMONITORING,MACROINVERTEBRATE,43.745005519999999,-70.439314120000006,0.0000000
207,83,S-472,TANNERY BROOK - STATION 472,GORHAM,CUMBERLAND,SACO,STREAM/RIVER BIOMONITORING,MACROINVERTEBRATE,43.689496149999997,-70.436869270000003,0.0000000
208,84,S-473,TANNERY BROOK - STATION 473,GORHAM,CUMBERLAND,SACO,STREAM/RIVER BIOMONITORING,MACROINVERTEBRATE,43.690197210000001,-70.436284090000001,0.0000000
209,138,S-802,PRESUMPSCOT RIVER - STATION 802,FALMOUTH,CUMBERLAND,SACO,STREAM/RIVER BIOMONITORING,MACROINVERTEBRATE,43.728191170000002,-70.285566810000006,0.0000000
210,167,W-006,ALLEN BOG SITE A - W-006,GRAY,CUMBERLAND,SACO,WETLAND,WETLAND,43.866669760000001,-70.377740020000005,0.0000000
211,168,W-007,UNNAMED TRIBUTARY TO SEBAGO LAKE - W-007,STANDISH,CUMBERLAND,SACO,WETLAND,WETLAND,43.779585910000002,-70.550618830000005,0.0000000
212,172,W-011,BARBERRY CREEK - W-011,SOUTH PORTLAND,CUMBERLAND,SACO,WETLAND,WETLAND,43.630389549999997,-70.278511190000003,0.0000000
213,177,W-016,CROOKED RIVER (BACKWATER) - W-016,WATERFORD,OXFORD,SACO,WETLAND,WETLAND,44.196568980000002,-70.649209409999997,0.0000000
214,193,W-032,HOLT POND - W-032,BRIDGTON,CUMBERLAND,SACO,WETLAND,WETLAND,43.977927360000002,-70.678710159999994,0.0000000
215,196,W-035,SHAKER BOG - W-035,POLAND,ANDROSCOGGIN,SACO,WETLAND,WETLAND,43.995766590000002,-70.377847130000006,0.0000000
216,197,W-036,RUNAROUND POND - W-036,DURHAM,ANDROSCOGGIN,SACO,WETLAND,WETLAND,43.954252830000001,-70.173490060000006,0.0000000
217,201,W-128,GREAT POND - W-128,CAPE ELIZABETH,CUMBERLAND,SACO,WETLAND,WETLAND,43.577761940000002,-70.231543970000004,0.0000000
218,212,W-224,CAPISIC POND - W-224,PORTLAND,CUMBERLAND,SACO,WETLAND,WETLAND,43.666507029999998,-70.307625979999997,0.0000000